ORBCOMM-X               
1 21576U 91050C   25144.04307133  .00000279  00000+0  95730-4 0  9998
2 21576  98.3443 211.1318 0002365 251.9591 108.1342 14.43244350778853
ORBCOMM FM01            
1 23545U 95017A   25144.50106719  .00004559  00000+0  48292-3 0  9996
2 23545  69.9611 133.1860 0004685 308.6731  51.4004 14.89802908609330
ORBCOMM FM02            
1 23546U 95017B   25144.18849743  .00005183  00000+0  53694-3 0  9998
2 23546  69.9629 153.4301 0005903 318.8807  41.1902 14.90599815608880
ORBCOMM FM08            
1 25112U 97084A   25144.34129803  .00001142  00000+0  35992-3 0  9993
2 25112  45.0129 122.3278 0004049 129.1351 230.9861 14.45737248438096
ORBCOMM FM10            
1 25113U 97084B   25144.24980360  .00001131  00000+0  35826-3 0  9990
2 25113  45.0140 125.1058 0002936  69.6358 290.4808 14.45525543438067
ORBCOMM FM11            
1 25114U 97084C   25143.42074171  .00001070  00000+0  34297-3 0  9997
2 25114  45.0125 129.6720 0003656  71.8434 288.2815 14.45276898437895
ORBCOMM FM12            
1 25115U 97084D   25144.21306396  .00001093  00000+0  34913-3 0  9993
2 25115  45.0134 125.6244 0002779  66.3344 293.7798 14.45300102438042
ORBCOMM FM09            
1 25116U 97084E   25143.69029636  .00001062  00000+0  34123-3 0  9993
2 25116  45.0138 129.0403 0004412  56.7628 303.3645 14.45176013437934
